{"type": "FeatureCollection", "features": [ {"type": "Feature", "properties": {"norad_id": 37834, "name": "INTELSAT 18 (IS-18)", "group": "intelsat", "lat": -0.03937426075316472, "lon": -116.50102812358605, "alt_km": 35779.2896980323, "timestamp": "2025-12-14T22:38:40.427110+00:00", "meta": {"OBJECT_NAME": "INTELSAT 18 (IS-18)", "OBJECT_ID": "2011-056A", "EPOCH": "2025-12-14T05:42:49.239360", "MEAN_MOTION": 1.00272412, "ECCENTRICITY": 0.00018109, "INCLINATION": 0.0185, "RA_OF_ASC_NODE": 326.9071, "ARG_OF_PERICENTER": 307.6852, "MEAN_ANOMALY": 74.2671, "EPHEMERIS_TYPE": 0, "CLASSIFICATION_TYPE": "U", "NORAD_CAT_ID": 37834, "ELEMENT_SET_NO": 999, "REV_AT_EPOCH": 5195, "BSTAR": 0, "MEAN_MOTION_DOT": 7.1e-07, "MEAN_MOTION_DDOT": 0}, "tle": {"line1": "1 37834U 11056A   25348.23806990  .00000071  00000+0  00000+0 0  9993", "line2": "2 37834   0.0185 326.9071 0001810 307.6852  74.2671  1.00272412 51956"}}, "geometry": {"type": "Point", "coordinates": [-116.50102812358605, -0.03937426075316472]}}, {"type": "Feature", "properties": {"norad_id": 38098, "name": "INTELSAT 22 (IS-22)", "group": "intelsat", "lat": 0.03822632049389937, "lon": 135.59702826876165, "alt_km": 35792.7008066775, "timestamp": "2025-12-14T22:38:40.427122+00:00", "meta": {"OBJECT_NAME": "INTELSAT 22 (IS-22)", "OBJECT_ID": "2012-011A", "EPOCH": "2025-12-14T03:29:02.053824", "MEAN_MOTION": 1.00270483, "ECCENTRICITY": 0.00017698, "INCLINATION": 0.0332, "RA_OF_ASC_NODE": 44.514, "ARG_OF_PERICENTER": 238.2269, "MEAN_ANOMALY": 284.6841, "EPHEMERIS_TYPE": 0, "CLASSIFICATION_TYPE": "U", "NORAD_CAT_ID": 38098, "ELEMENT_SET_NO": 999, "REV_AT_EPOCH": 533, "BSTAR": 0, "MEAN_MOTION_DOT": 0, "MEAN_MOTION_DDOT": 0}, "tle": {"line1": "1 38098U 12011A   25348.14516266  .00000000  00000+0  00000+0 0  9994", "line2": "2 38098   0.0332  44.5140 0001769 238.2269 284.6841  1.00270483  5330"}}, "geometry": {"type": "Point", "coordinates": [135.59702826876165, 0.03822632049389937]}}, {"type": "Feature", "properties": {"norad_id": 38356, "name": "INTELSAT 19 (IS-19)", "group": "intelsat", "lat": -0.03215975602838052, "lon": -130.4906703536543, "alt_km": 35775.56430973449, "timestamp": "2025-12-14T22:38:40.427134+00:00", "meta": {"OBJECT_NAME": "INTELSAT 19 (IS-19)", "OBJECT_ID": "2012-030A", "EPOCH": "2025-12-14T05:38:49.621920", "MEAN_MOTION": 1.00273866, "ECCENTRICITY": 0.00031297, "INCLINATION": 0.0118, "RA_OF_ASC_NODE": 322.9566, "ARG_OF_PERICENTER": 308.1159, "MEAN_ANOMALY": 62.8057, "EPHEMERIS_TYPE": 0, "CLASSIFICATION_TYPE": "U", "NORAD_CAT_ID": 38356, "ELEMENT_SET_NO": 999, "REV_AT_EPOCH": 4859, "BSTAR": 0, "MEAN_MOTION_DOT": -3.8e-07, "MEAN_MOTION_DDOT": 0}, "tle": {"line1": "1 38356U 12030A   25348.23529655 -.00000038  00000+0  00000+0 0  9990", "line2": "2 38356   0.0118 322.9566 0003129 308.1159  62.8057  1.00273866 48599"}}, "geometry": {"type": "Point", "coordinates": [-130.4906703536543, -0.03215975602838052]}}, {"type": "Feature", "properties": {"norad_id": 38740, "name": "INTELSAT 20 (IS-20)", "group": "intelsat", "lat": 0.004524777451922893, "lon": 131.98010006054497, "alt_km": 35778.75235661525, "timestamp": "2025-12-14T22:38:40.427146+00:00", "meta": {"OBJECT_NAME": "INTELSAT 20 (IS-20)", "OBJECT_ID": "2012-043A", "EPOCH": "2025-12-14T05:10:52.299840", "MEAN_MOTION": 1.0026944, "ECCENTRICITY": 0.00030205, "INCLINATION": 0.0053, "RA_OF_ASC_NODE": 63.1553, "ARG_OF_PERICENTER": 119.7926, "MEAN_ANOMALY": 46.4074, "EPHEMERIS_TYPE": 0, "CLASSIFICATION_TYPE": "U", "NORAD_CAT_ID": 38740, "ELEMENT_SET_NO": 999, "REV_AT_EPOCH": 4889, "BSTAR": 0, "MEAN_MOTION_DOT": -6e-08, "MEAN_MOTION_DDOT": 0}, "tle": {"line1": "1 38740U 12043A   25348.21588310 -.00000006  00000+0  00000+0 0  9997", "line2": "2 38740   0.0053  63.1553 0003020 119.7926  46.4074  1.00269440 48895"}}, "geometry": {"type": "Point", "coordinates": [131.98010006054497, 0.004524777451922893]}}, {"type": "Feature", "properties": {"norad_id": 38749, "name": "INTELSAT 21 (IS-21)", "group": "intelsat", "lat": -0.01335311971346084, "lon": 5.537177176554311, "alt_km": 35787.86961656511, "timestamp": "2025-12-14T22:38:40.427158+00:00", "meta": {"OBJECT_NAME": "INTELSAT 21 (IS-21)", "OBJECT_ID": "2012-045A", "EPOCH": "2025-12-14T06:17:38.404320", "MEAN_MOTION": 1.00271914, "ECCENTRICITY": 0.00017205, "INCLINATION": 0.0314, "RA_OF_ASC_NODE": 75.9648, "ARG_OF_PERICENTER": 185.7372, "MEAN_ANOMALY": 217.8961, "EPHEMERIS_TYPE": 0, "CLASSIFICATION_TYPE": "U", "NORAD_CAT_ID": 38749, "ELEMENT_SET_NO": 999, "REV_AT_EPOCH": 4867, "BSTAR": 0, "MEAN_MOTION_DOT": -2.67e-06, "MEAN_MOTION_DDOT": 0}, "tle": {"line1": "1 38749U 12045A   25348.26225005 -.00000267  00000+0  00000+0 0  9991", "line2": "2 38749   0.0314  75.9648 0001720 185.7372 217.8961  1.00271914 48677"}}, "geometry": {"type": "Point", "coordinates": [5.537177176554311, -0.01335311971346084]}}, {"type": "Feature", "properties": {"norad_id": 38867, "name": "INTELSAT 23 (IS-23)", "group": "intelsat", "lat": -0.024050679139192392, "lon": 10.512984126731647, "alt_km": 35789.80260238291, "timestamp": "2025-12-14T22:38:40.427170+00:00", "meta": {"OBJECT_NAME": "INTELSAT 23 (IS-23)", "OBJECT_ID": "2012-057A", "EPOCH": "2025-12-14T06:19:08.261184", "MEAN_MOTION": 1.0026993, "ECCENTRICITY": 0.0001002, "INCLINATION": 0.044, "RA_OF_ASC_NODE": 97.0354, "ARG_OF_PERICENTER": 135.8594, "MEAN_ANOMALY": 252.0708, "EPHEMERIS_TYPE": 0, "CLASSIFICATION_TYPE": "U", "NORAD_CAT_ID": 38867, "ELEMENT_SET_NO": 999, "REV_AT_EPOCH": 4810, "BSTAR": 0, "MEAN_MOTION_DOT": -2.67e-06, "MEAN_MOTION_DDOT": 0}, "tle": {"line1": "1 38867U 12057A   25348.26329006 -.00000267  00000+0  00000+0 0  9991", "line2": "2 38867   0.0440  97.0354 0001002 135.8594 252.0708  1.00269930 48105"}}, "geometry": {"type": "Point", "coordinates": [10.512984126731647, -0.024050679139192392]}}, {"type": "Feature", "properties": {"norad_id": 39360, "name": "FM-6", "group": "intelsat", "lat": -0.010244652636686377, "lon": -52.62825652224257, "alt_km": 35794.65070820757, "timestamp": "2025-12-14T22:38:40.427182+00:00", "meta": {"OBJECT_NAME": "FM-6", "OBJECT_ID": "2013-058A", "EPOCH": "2025-12-14T04:19:57.175968", "MEAN_MOTION": 1.00264624, "ECCENTRICITY": 0.00025657, "INCLINATION": 0.0081, "RA_OF_ASC_NODE": 55.9543, "ARG_OF_PERICENTER": 123.5668, "MEAN_ANOMALY": 212.4248, "EPHEMERIS_TYPE": 0, "CLASSIFICATION_TYPE": "U", "NORAD_CAT_ID": 39360, "ELEMENT_SET_NO": 999, "REV_AT_EPOCH": 4421, "BSTAR": 0, "MEAN_MOTION_DOT": 1e-08, "MEAN_MOTION_DDOT": 0}, "tle": {"line1": "1 39360U 13058A   25348.18052287  .00000001  00000+0  00000+0 0  9992", "line2": "2 39360   0.0081  55.9543 0002565 123.5668 212.4248  1.00264624 44211"}}, "geometry": {"type": "Point", "coordinates": [-52.62825652224257, -0.010244652636686377]}}, {"type": "Feature", "properties": {"norad_id": 40271, "name": "INTELSAT 30 (IS-30)", "group": "intelsat", "lat": -0.017075657164575063, "lon": -31.562393496637018, "alt_km": 35788.615708793106, "timestamp": "2025-12-14T22:38:40.427193+00:00", "meta": {"OBJECT_NAME": "INTELSAT 30 (IS-30)", "OBJECT_ID": "2014-062A", "EPOCH": "2025-12-14T06:07:09.408000", "MEAN_MOTION": 1.00270387, "ECCENTRICITY": 0.00014818, "INCLINATION": 0.0154, "RA_OF_ASC_NODE": 23.1736, "ARG_OF_PERICENTER": 54.9488, "MEAN_ANOMALY": 1.787, "EPHEMERIS_TYPE": 0, "CLASSIFICATION_TYPE": "U", "NORAD_CAT_ID": 40271, "ELEMENT_SET_NO": 999, "REV_AT_EPOCH": 493, "BSTAR": 0, "MEAN_MOTION_DOT": -1.33e-06, "MEAN_MOTION_DDOT": 0}, "tle": {"line1": "1 40271U 14062A   25348.25497000 -.00000133  00000+0  00000+0 0  9992", "line2": "2 40271   0.0154  23.1736 0001481  54.9488   1.7870  1.00270387  4937"}}, "geometry": {"type": "Point", "coordinates": [-31.562393496637018, -0.017075657164575063]}}, {"type": "Feature", "properties": {"norad_id": 40333, "name": "DIRECTV 14", "group": "intelsat", "lat": -0.006849611022335374, "lon": -35.720311077174195, "alt_km": 35787.55186669532, "timestamp": "2025-12-14T22:38:40.427205+00:00", "meta": {"OBJECT_NAME": "DIRECTV 14", "OBJECT_ID": "2014-078B", "EPOCH": "2025-12-14T06:05:54.526848", "MEAN_MOTION": 1.00270261, "ECCENTRICITY": 2.615e-05, "INCLINATION": 0.0026, "RA_OF_ASC_NODE": 348.2073, "ARG_OF_PERICENTER": 134.9452, "MEAN_ANOMALY": 312.2715, "EPHEMERIS_TYPE": 0, "CLASSIFICATION_TYPE": "U", "NORAD_CAT_ID": 40333, "ELEMENT_SET_NO": 999, "REV_AT_EPOCH": 4018, "BSTAR": 0, "MEAN_MOTION_DOT": -1.08e-06, "MEAN_MOTION_DDOT": 0}, "tle": {"line1": "1 40333U 14078B   25348.25410332 -.00000108  00000+0  00000+0 0  9993", "line2": "2 40333   0.0026 348.2073 0000261 134.9452 312.2715  1.00270261 40180"}}, "geometry": {"type": "Point", "coordinates": [-35.720311077174195, -0.006849611022335374]}}, {"type": "Feature", "properties": {"norad_id": 40663, "name": "DIRECTV 15", "group": "intelsat", "lat": -0.032494125131510294, "lon": -39.35552554333734, "alt_km": 35786.2458201088, "timestamp": "2025-12-14T22:38:40.427217+00:00", "meta": {"OBJECT_NAME": "DIRECTV 15", "OBJECT_ID": "2015-026A", "EPOCH": "2025-12-14T07:45:38.704032", "MEAN_MOTION": 1.00269806, "ECCENTRICITY": 9.77e-06, "INCLINATION": 0.039, "RA_OF_ASC_NODE": 84.6308, "ARG_OF_PERICENTER": 244.6092, "MEAN_ANOMALY": 127.5507, "EPHEMERIS_TYPE": 0, "CLASSIFICATION_TYPE": "U", "NORAD_CAT_ID": 40663, "ELEMENT_SET_NO": 999, "REV_AT_EPOCH": 3861, "BSTAR": 0, "MEAN_MOTION_DOT": -8.4e-07, "MEAN_MOTION_DDOT": 0}, "tle": {"line1": "1 40663U 15026A   25348.32336463 -.00000084  00000+0  00000+0 0  9996", "line2": "2 40663   0.0390  84.6308 0000097 244.6092 127.5507  1.00269806 38612"}}, "geometry": {"type": "Point", "coordinates": [-39.35552554333734, -0.032494125131510294]}}]}